start=new Date('2022-04-28T00:00:00.000Z').valueOf();
sats=[{"EPOCH":"2022-04-27T11:18:49.031712","OBJECT_ID":"2020-035AM","TIME_SYSTEM":"UTC","CLASSIFICATION_TYPE":"U","MEAN_MOTION":"15.06400018","ARG_OF_PERICENTER":"71.2662","OBJECT_TYPE":"PAYLOAD","REF_FRAME":"TEME","ELEMENT_SET_NO":"999","LAUNCH_DATE":"2020-06-04","MEAN_ANOMALY":"288.8507","MEAN_ELEMENT_THEORY":"SGP4","OBJECT_NAME":"STARLINK-1416","NORAD_CAT_ID":"45692","PERIOD":"95.592","APOAPSIS":"548.363","CENTER_NAME":"EARTH","DECAY_DATE":null,"SITE":"AFETR","MEAN_MOTION_DDOT":"0.0000000000000","REV_AT_EPOCH":"10601","INCLINATION":"53.0502","COUNTRY_CODE":"US","RA_OF_ASC_NODE":"276.3210","TLE_LINE2":"2 45692  53.0502 276.3210 0001660  71.2662 288.8507 15.06400018106012","FILE":"3418497","MEAN_MOTION_DOT":"0.00003082","PERIAPSIS":"546.064","SEMIMAJOR_AXIS":"6925.349","EPHEMERIS_TYPE":"0","TLE_LINE1":"1 45692U 20035AM  22117.47140083  .00003082  00000-0  22570-3 0  9998","GP_ID":"202156821","RCS_SIZE":"LARGE","ECCENTRICITY":"0.00016600","BSTAR":"0.00022570000000"},{"TLE_LINE2":"2 45693  53.0559 276.2341 0001269  62.8120 297.2999 15.06395513106011","INCLINATION":"53.0559","RA_OF_ASC_NODE":"276.2341","COUNTRY_CODE":"US","TLE_LINE1":"1 45693U 20035AN  22117.48983056  .00000453  00000-0  49323-4 0  9990","EPHEMERIS_TYPE":"0","BSTAR":"0.00004932300000","RCS_SIZE":"LARGE","ECCENTRICITY":"0.00012690","GP_ID":"202155575","PERIAPSIS":"546.348","MEAN_MOTION_DOT":"0.00000453","FILE":"3418497","SEMIMAJOR_AXIS":"6925.362","ARG_OF_PERICENTER":"62.8120","MEAN_MOTION":"15.06395513","CLASSIFICATION_TYPE":"U","ELEMENT_SET_NO":"999","LAUNCH_DATE":"2020-06-04","MEAN_ELEMENT_THEORY":"SGP4","MEAN_ANOMALY":"297.2999","OBJECT_TYPE":"PAYLOAD","REF_FRAME":"TEME","EPOCH":"2022-04-27T11:45:21.360384","TIME_SYSTEM":"UTC","OBJECT_ID":"2020-035AN","CENTER_NAME":"EARTH","DECAY_DATE":null,"APOAPSIS":"548.106","PERIOD":"95.592","MEAN_MOTION_DDOT":"0.0000000000000","REV_AT_EPOCH":"10601","SITE":"AFETR","OBJECT_NAME":"STARLINK-1417","NORAD_CAT_ID":"45693"},{"SEMIMAJOR_AXIS":"6925.342","FILE":"3418497","MEAN_MOTION_DOT":"-0.00000156","PERIAPSIS":"546.176","GP_ID":"202155324","RCS_SIZE":"LARGE","ECCENTRICITY":"0.00014890","BSTAR":"0.00000842100000","TLE_LINE1":"1 45694U 20035AP  22117.43084992 -.00000156  00000-0  84210-5 0  9993","EPHEMERIS_TYPE":"0","COUNTRY_CODE":"US","RA_OF_ASC_NODE":"276.4828","INCLINATION":"53.0539","TLE_LINE2":"2 45694  53.0539 276.4828 0001489  80.3407 279.7750 15.06402122106003","NORAD_CAT_ID":"45694","OBJECT_NAME":"STARLINK-1419","SITE":"AFETR","REV_AT_EPOCH":"10600","MEAN_MOTION_DDOT":"0.0000000000000","PERIOD":"95.592","APOAPSIS":"548.238","DECAY_DATE":null,"CENTER_NAME":"EARTH","OBJECT_ID":"2020-035AP","TIME_SYSTEM":"UTC","EPOCH":"2022-04-27T10:20:25.433088","REF_FRAME":"TEME","OBJECT_TYPE":"PAYLOAD","LAUNCH_DATE":"2020-06-04","ELEMENT_SET_NO":"999","MEAN_ANOMALY":"279.7750","MEAN_ELEMENT_THEORY":"SGP4","MEAN_MOTION":"15.06402122","CLASSIFICATION_TYPE":"U","ARG_OF_PERICENTER":"80.3407"},{"APOAPSIS":"548.309","CENTER_NAME":"EARTH","DECAY_DATE":null,"PERIOD":"95.593","MEAN_MOTION_DDOT":"0.0000000000000","REV_AT_EPOCH":"10628","SITE":"AFETR","OBJECT_NAME":"STARLINK-1420","NORAD_CAT_ID":"45695","ARG_OF_PERICENTER":"52.3608","CLASSIFICATION_TYPE":"U","MEAN_MOTION":"15.06391688","LAUNCH_DATE":"2020-06-04","MEAN_ANOMALY":"307.7521","ELEMENT_SET_NO":"999","MEAN_ELEMENT_THEORY":"SGP4","OBJECT_TYPE":"PAYLOAD","REF_FRAME":"TEME","EPOCH":"2022-04-27T08:36:56.050848","TIME_SYSTEM":"UTC","OBJECT_ID":"2020-035AQ","TLE_LINE1":"1 45695U 20035AQ  22117.35898207 -.00002486  00000-0 -14806-3 0  9998","EPHEMERIS_TYPE":"0","ECCENTRICITY":"0.00015450","RCS_SIZE":"LARGE","BSTAR":"-0.00014806000000","GP_ID":"202156576","PERIAPSIS":"546.169","FILE":"3418497","MEAN_MOTION_DOT":"-0.00002486","SEMIMAJOR_AXIS":"6925.374","TLE_LINE2":"2 45695  53.0531 256.8042 0001545  52.3608 307.7521 15.06391688106283","INCLINATION":"53.0531","RA_OF_ASC_NODE":"256.8042","COUNTRY_CODE":"US"},{"PERIAPSIS":"545.740","FILE":"3418713","MEAN_MOTION_DOT":"0.00000653","SEMIMAJOR_AXIS":"6925.371","EPHEMERIS_TYPE":"0","TLE_LINE1":"1 45696U 20035AR  22117.69993123  .00000653  00000-0  62739-4 0  9990","RCS_SIZE":"LARGE","ECCENTRICITY":"0.00021610","BSTAR":"0.00006273900000","GP_ID":"202166541","INCLINATION":"53.0512","RA_OF_ASC_NODE":"275.2770","COUNTRY_CODE":"US","TLE_LINE2":"2 45696  53.0512 275.2770 0002161  55.7255 304.3938 15.06392559105648","OBJECT_NAME":"STARLINK-1422","NORAD_CAT_ID":"45696","APOAPSIS":"548.733","DECAY_DATE":null,"CENTER_NAME":"EARTH","PERIOD":"95.593","MEAN_MOTION_DDOT":"0.0000000000000","REV_AT_EPOCH":"10564","SITE":"AFETR","EPOCH":"2022-04-27T16:47:54.058272","TIME_SYSTEM":"UTC","OBJECT_ID":"2020-035AR","ARG_OF_PERICENTER":"55.7255","MEAN_MOTION":"15.06392559","CLASSIFICATION_TYPE":"U","LAUNCH_DATE":"2020-06-04","ELEMENT_SET_NO":"999","MEAN_ELEMENT_THEORY":"SGP4","MEAN_ANOMALY":"304.3938","REF_FRAME":"TEME","OBJECT_TYPE":"PAYLOAD"},{"SEMIMAJOR_AXIS":"6925.389","MEAN_MOTION_DOT":"0.00001223","FILE":"3418681","PERIAPSIS":"546.002","GP_ID":"202165584","BSTAR":"0.00010106000000","RCS_SIZE":"LARGE","ECCENTRICITY":"0.00018070","TLE_LINE1":"1 45697U 20035AS  22117.80867320  .00001223  00000-0  10106-3 0  9997","EPHEMERIS_TYPE":"0","COUNTRY_CODE":"US","RA_OF_ASC_NODE":"254.8038","INCLINATION":"53.0547","TLE_LINE2":"2 45697  53.0547 254.8038 0001807  69.3890 290.7293 15.06386856105947","NORAD_CAT_ID":"45697","OBJECT_NAME":"STARLINK-1351","SITE":"AFETR","MEAN_MOTION_DDOT":"0.0000000000000","REV_AT_EPOCH":"10594","PERIOD":"95.593","DECAY_DATE":null,"CENTER_NAME":"EARTH","APOAPSIS":"548.505","OBJECT_ID":"2020-035AS","TIME_SYSTEM":"UTC","EPOCH":"2022-04-27T19:24:29.364480","REF_FRAME":"TEME","OBJECT_TYPE":"PAYLOAD","MEAN_ANOMALY":"290.7293","LAUNCH_DATE":"2020-06-04","ELEMENT_SET_NO":"999","MEAN_ELEMENT_THEORY":"SGP4","MEAN_MOTION":"15.06386856","CLASSIFICATION_TYPE":"U","ARG_OF_PERICENTER":"69.3890"},{"TLE_LINE1":"1 45698U 20035AT  22117.79760129 -.00000525  00000-0 -16381-4 0  9993","EPHEMERIS_TYPE":"0","GP_ID":"202165879","RCS_SIZE":"LARGE","ECCENTRICITY":"0.00014170","BSTAR":"-0.00001638100000","FILE":"3418703","MEAN_MOTION_DOT":"-0.00000525","PERIAPSIS":"546.245","SEMIMAJOR_AXIS":"6925.361","TLE_LINE2":"2 45698  53.0537 254.8530 0001417  61.9359 298.1773 15.06395930105958","INCLINATION":"53.0537","COUNTRY_CODE":"US","RA_OF_ASC_NODE":"254.8530","PERIOD":"95.592","APOAPSIS":"548.207","DECAY_DATE":null,"CENTER_NAME":"EARTH","SITE":"AFETR","REV_AT_EPOCH":"10595","MEAN_MOTION_DDOT":"0.0000000000000","OBJECT_NAME":"STARLINK-1370","NORAD_CAT_ID":"45698","CLASSIFICATION_TYPE":"U","MEAN_MOTION":"15.06395930","ARG_OF_PERICENTER":"61.9359","REF_FRAME":"TEME","OBJECT_TYPE":"PAYLOAD","ELEMENT_SET_NO":"999","LAUNCH_DATE":"2020-06-04","MEAN_ELEMENT_THEORY":"SGP4","MEAN_ANOMALY":"298.1773","EPOCH":"2022-04-27T19:08:32.751456","OBJECT_ID":"2020-035AT","TIME_SYSTEM":"UTC"},{"OBJECT_NAME":"STARLINK-1398","NORAD_CAT_ID":"45699","APOAPSIS":"548.572","DECAY_DATE":null,"CENTER_NAME":"EARTH","PERIOD":"95.592","MEAN_MOTION_DDOT":"0.0000000000000","REV_AT_EPOCH":"10628","SITE":"AFETR","EPOCH":"2022-04-27T09:19:24.234816","TIME_SYSTEM":"UTC","OBJECT_ID":"2020-035AU","ARG_OF_PERICENTER":"62.2158","CLASSIFICATION_TYPE":"U","MEAN_MOTION":"15.06404930","LAUNCH_DATE":"2020-06-04","MEAN_ANOMALY":"297.9032","ELEMENT_SET_NO":"999","MEAN_ELEMENT_THEORY":"SGP4","OBJECT_TYPE":"PAYLOAD","REF_FRAME":"TEME","PERIAPSIS":"545.825","FILE":"3418497","MEAN_MOTION_DOT":"0.00008744","SEMIMAJOR_AXIS":"6925.333","TLE_LINE1":"1 45699U 20035AU  22117.38847494  .00008744  00000-0  60508-3 0  9998","EPHEMERIS_TYPE":"0","RCS_SIZE":"LARGE","ECCENTRICITY":"0.00019830","BSTAR":"0.00060508000000","GP_ID":"202156076","INCLINATION":"53.0532","RA_OF_ASC_NODE":"256.6936","COUNTRY_CODE":"US","TLE_LINE2":"2 45699  53.0532 256.6936 0001983  62.2158 297.9032 15.06404930106286"},{"SEMIMAJOR_AXIS":"6925.350","FILE":"3418236","MEAN_MOTION_DOT":"-0.00000571","PERIAPSIS":"545.970","GP_ID":"202130709","ECCENTRICITY":"0.00017990","RCS_SIZE":"LARGE","BSTAR":"-0.00001944500000","EPHEMERIS_TYPE":"0","TLE_LINE1":"1 45700U 20035AV  22117.51747916 -.00000571  00000-0 -19445-4 0  9991","COUNTRY_CODE":"US","RA_OF_ASC_NODE":"256.1066","INCLINATION":"53.0538","TLE_LINE2":"2 45700  53.0538 256.1066 0001799  83.8645 276.2549 15.06399389105899","NORAD_CAT_ID":"45700","OBJECT_NAME":"STARLINK-1400","SITE":"AFETR","MEAN_MOTION_DDOT":"0.0000000000000","REV_AT_EPOCH":"10589","PERIOD":"95.592","APOAPSIS":"548.461","DECAY_DATE":null,"CENTER_NAME":"EARTH","OBJECT_ID":"2020-035AV","TIME_SYSTEM":"UTC","EPOCH":"2022-04-27T12:25:10.199424","REF_FRAME":"TEME","OBJECT_TYPE":"PAYLOAD","MEAN_ELEMENT_THEORY":"SGP4","LAUNCH_DATE":"2020-06-04","ELEMENT_SET_NO":"999","MEAN_ANOMALY":"276.2549","CLASSIFICATION_TYPE":"U","MEAN_MOTION":"15.06399389","ARG_OF_PERICENTER":"83.8645"},{"EPOCH":"2022-04-27T11:32:06.177120","TIME_SYSTEM":"UTC","OBJECT_ID":"2020-035AW","ARG_OF_PERICENTER":"41.9134","MEAN_MOTION":"15.06383530","CLASSIFICATION_TYPE":"U","LAUNCH_DATE":"2020-06-04","ELEMENT_SET_NO":"999","MEAN_ELEMENT_THEORY":"SGP4","MEAN_ANOMALY":"318.1981","OBJECT_TYPE":"PAYLOAD","REF_FRAME":"TEME","OBJECT_NAME":"STARLINK-1403","NORAD_CAT_ID":"45701","DECAY_DATE":null,"CENTER_NAME":"EARTH","APOAPSIS":"548.402","PERIOD":"95.593","MEAN_MOTION_DDOT":"0.0000000000000","REV_AT_EPOCH":"10629","SITE":"AFETR","INCLINATION":"53.0559","RA_OF_ASC_NODE":"256.2634","COUNTRY_CODE":"US","TLE_LINE2":"2 45701  53.0559 256.2634 0001643  41.9134 318.1981 15.06383530106293","PERIAPSIS":"546.126","MEAN_MOTION_DOT":"0.00000120","FILE":"3418497","SEMIMAJOR_AXIS":"6925.399","EPHEMERIS_TYPE":"0","TLE_LINE1":"1 45701U 20035AW  22117.48062705  .00000120  00000-0  26980-4 0  9994","BSTAR":"0.00002698000000","RCS_SIZE":"LARGE","ECCENTRICITY":"0.00016430","GP_ID":"202155576"}];
